{
	"countries": [{
		"code": "AU",
		"name": "Australia",
		"callingCode": "61",
		"locales": [{
			"locale": "en-AU",
			"language": "English(AU)",
			"extensionPoint": null
		}],
		"extensionPoint": null
	}, {
		"code": "BE",
		"name": "Belgium",
		"callingCode": "32",
		"locales": [{
			"locale": "fr-BE",
			"language": "FranÃ§ais(BE)",
			"extensionPoint": null
		}, {
			"locale": "en-BE",
			"language": "English(BE)",
			"extensionPoint": null
		}, {
			"locale": "nl-BE",
			"language": "Nederlands(BE)",
			"extensionPoint": null
		}],
		"extensionPoint": null
	}, {
		"code": "BR",
		"name": "Brazil",
		"callingCode": "55",
		"locales": [{
			"locale": "pt-BR",
			"language": "PortuguÃªs(BR)",
			"extensionPoint": null
		}],
		"extensionPoint": null
	}, {
		"code": "CA",
		"name": "Canada",
		"callingCode": "1",
		"locales": [{
			"locale": "zh-CA",
			"language": "ä¸­æ–‡(CA)",
			"extensionPoint": null
		}, {
			"locale": "en-CA",
			"language": "English(CA)",
			"extensionPoint": null
		}, {
			"locale": "fr-CA",
			"language": "FranÃ§ais(CA)",
			"extensionPoint": null
		}],
		"extensionPoint": null
	}, {
		"code": "CN",
		"name": "China",
		"callingCode": "86",
		"locales": [{
			"locale": "en-CN",
			"language": "English(CN)",
			"extensionPoint": null
		}, {
			"locale": "zh-CN",
			"language": "ä¸­æ–‡(CN)",
			"extensionPoint": null
		}],
		"extensionPoint": null
	}, {
		"code": "FR",
		"name": "France",
		"callingCode": "33",
		"locales": [{
			"locale": "fr-FR",
			"language": "FranÃ§ais(FR)",
			"extensionPoint": null
		}],
		"extensionPoint": null
	}, {
		"code": "DE",
		"name": "Germany",
		"callingCode": "49",
		"locales": [{
			"locale": "de-DE",
			"language": "Deutsch(DE)",
			"extensionPoint": null
		}, {
			"locale": "en-DE",
			"language": "English(DE)",
			"extensionPoint": null
		}],
		"extensionPoint": null
	}, {
		"code": "HK",
		"name": "Hong Kong SAR China",
		"callingCode": "852",
		"locales": [{
			"locale": "zh-HK",
			"language": "ä¸­æ–‡(HK)",
			"extensionPoint": null
		}, {
			"locale": "en-HK",
			"language": "English(HK)",
			"extensionPoint": null
		}],
		"extensionPoint": null
	}, {
		"code": "HU",
		"name": "Hungary",
		"callingCode": "36",
		"locales": [{
			"locale": "en-HU",
			"language": "English(HU)",
			"extensionPoint": null
		}, {
			"locale": "hu-HU",
			"language": "Magyar(HU)",
			"extensionPoint": null
		}],
		"extensionPoint": null
	}, {
		"code": "IN",
		"name": "India",
		"callingCode": "91",
		"locales": [{
			"locale": "en-IN",
			"language": "English(IN)",
			"extensionPoint": null
		}],
		"extensionPoint": null
	}, {
		"code": "IE",
		"name": "Ireland",
		"callingCode": "353",
		"locales": [{
			"locale": "en-IE",
			"language": "English(IE)",
			"extensionPoint": null
		}],
		"extensionPoint": null
	}, {
		"code": "IL",
		"name": "Israel",
		"callingCode": "972",
		"locales": [{
			"locale": "iw-IL",
			"language": "×¢×‘×¨×™×ª(IL)",
			"extensionPoint": null
		}, {
			"locale": "en-IL",
			"language": "English(IL)",
			"extensionPoint": null
		}],
		"extensionPoint": null
	}, {
		"code": "IT",
		"name": "Italy",
		"callingCode": "39",
		"locales": [{
			"locale": "it-IT",
			"language": "Italiano(IT)",
			"extensionPoint": null
		}],
		"extensionPoint": null
	}, {
		"code": "LB",
		"name": "Lebanon",
		"callingCode": "961",
		"locales": [{
			"locale": "iw-LB",
			"language": "×¢×‘×¨×™×ª(LB)",
			"extensionPoint": null
		}],
		"extensionPoint": null
	}, {
		"code": "MY",
		"name": "Malaysia",
		"callingCode": "60",
		"locales": [{
			"locale": "en-MY",
			"language": "English(MY)",
			"extensionPoint": null
		}],
		"extensionPoint": null
	}, {
		"code": "MH",
		"name": "Marshall Islands",
		"callingCode": "692",
		"locales": [{
			"locale": "en-MH",
			"language": "English(MH)",
			"extensionPoint": null
		}],
		"extensionPoint": null
	}, {
		"code": "MX",
		"name": "Mexico",
		"callingCode": "52",
		"locales": [{
			"locale": "es-MX",
			"language": "EspaÃ±ol(MX)",
			"extensionPoint": null
		}],
		"extensionPoint": null
	}, {
		"code": "NL",
		"name": "Netherlands",
		"callingCode": "31",
		"locales": [{
			"locale": "fr-NL",
			"language": "FranÃ§ais(NL)",
			"extensionPoint": null
		}, {
			"locale": "en-NL",
			"language": "English(NL)",
			"extensionPoint": null
		}, {
			"locale": "nl-NL",
			"language": "Nederlands(NL)",
			"extensionPoint": null
		}],
		"extensionPoint": null
	}, {
		"code": "NZ",
		"name": "New Zealand",
		"callingCode": "64",
		"locales": [{
			"locale": "en-NZ",
			"language": "English(NZ)",
			"extensionPoint": null
		}],
		"extensionPoint": null
	}, {
		"code": "RO",
		"name": "Romania",
		"callingCode": "40",
		"locales": [{
			"locale": "ro-RO",
			"language": "RomÃ¢nÄƒ(RO)",
			"extensionPoint": null
		}],
		"extensionPoint": null
	}, {
		"code": "SG",
		"name": "Singapore",
		"callingCode": "65",
		"locales": [{
			"locale": "en-SG",
			"language": "English(SG)",
			"extensionPoint": null
		}],
		"extensionPoint": null
	}, {
		"code": "ZA",
		"name": "South Africa",
		"callingCode": "27",
		"locales": [{
			"locale": "en-ZA",
			"language": "English(ZA)",
			"extensionPoint": null
		}],
		"extensionPoint": null
	}, {
		"code": "ES",
		"name": "Spain",
		"callingCode": "34",
		"locales": [{
			"locale": "es-ES",
			"language": "EspaÃ±ol(ES)",
			"extensionPoint": null
		}],
		"extensionPoint": null
	}, {
		"code": "SE",
		"name": "Sweden",
		"callingCode": "46",
		"locales": [{
			"locale": "sv-SE",
			"language": "Svenska(SE)",
			"extensionPoint": null
		}],
		"extensionPoint": null
	}, {
		"code": "TW",
		"name": "Taiwan",
		"callingCode": "886",
		"locales": [{
			"locale": "en-TW",
			"language": "English(TW)",
			"extensionPoint": null
		}, {
			"locale": "zh-TW",
			"language": "ä¸­æ–‡(TW)",
			"extensionPoint": null
		}],
		"extensionPoint": null
	}, {
		"code": "AE",
		"name": "United Arab Emirates",
		"callingCode": "971",
		"locales": [{
			"locale": "ar-AE",
			"language": "Ø§Ù„Ø¹Ø±Ø¨ÙŠØ©(AE)",
			"extensionPoint": null
		}, {
			"locale": "ur-AE",
			"language": "Urdu(AE)",
			"extensionPoint": null
		}],
		"extensionPoint": null
	}, {
		"code": "GB",
		"name": "United Kingdom",
		"callingCode": "44",
		"locales": [{
			"locale": "en-GB",
			"language": "English(GB)",
			"extensionPoint": null
		}],
		"extensionPoint": null
	}, {
		"code": "US",
		"name": "United States",
		"callingCode": "1",
		"locales": [{
			"locale": "iw-US",
			"language": "×¢×‘×¨×™×ª(US)",
			"extensionPoint": null
		}, {
			"locale": "en-US",
			"language": "English(US)",
			"extensionPoint": null
		}],
		"extensionPoint": null
	}],
	"extensionPoint": null
}
